QIANFAN-18              
1 60396U 24140T   26064.14632440  .00000094  00000+0  12674-3 0  9992
2 60396  88.9722 290.4492 0013166 316.5248  43.4864 13.51003523 78656
QIANFAN-19              
1 61552U 24185A   26064.14883212  .00000636  00000+0  32513-3 0  9997
2 61552  88.9758  68.4789 0008667  52.1363 308.0607 14.14386415 81319
QIANFAN-20              
1 61553U 24185B   26064.14495051  .00000621  00000+0  35118-3 0  9996
2 61553  88.9756  68.8864 0007902  83.7645 276.4439 14.08932813 81098
QIANFAN-21              
1 61554U 24185C   26064.18343252  .00000791  00000+0  34632-3 0  9994
2 61554  88.9677  67.3033 0013013  94.0300 266.2379 14.22727218 81699
QIANFAN-22              
1 61555U 24185D   26064.14465330  .00000302  00000+0  24922-3 0  9992
2 61555  88.9740  70.2007 0008586 101.1318 259.0819 13.86338451 80350
QIANFAN-23              
1 61556U 24185E   26064.14933853  .00000695  00000+0  34257-3 0  9990
2 61556  88.9751  68.2497 0009596  60.0562 300.1578 14.16391479 81410
QIANFAN-24              
1 61557U 24185F   26064.11662357  .00000955  00000+0  41038-3 0  9990
2 61557  88.9734  67.5238 0010650  40.3729 319.8252 14.23930997 81740
QIANFAN-25              
1 61558U 24185G   26064.13864391  .00000547  00000+0  32547-3 0  9997
2 61558  88.9748  68.8451 0011918  66.7403 293.5033 14.05994488 81083
QIANFAN-26              
1 61559U 24185H   26064.10168901  .00000296  00000+0  28314-3 0  9997
2 61559  88.9745  70.8447 0007668 113.9011 246.2959 13.77861118 80011
QIANFAN-27              
1 61560U 24185J   26064.11929793  .00000665  00000+0  26528-3 0  9999
2 61560  88.9748  67.2668 0008709  33.8211 326.3537 14.27442525 81915
QIANFAN-28              
1 61561U 24185K   26064.19915383  .00001103  00000+0  43728-3 0  9997
2 61561  88.9763  67.2645 0008309  34.5811 325.5922 14.28211327 81945
QIANFAN-29              
1 61562U 24185L   26064.16977894  .00000199  00000+0  28966-3 0  9991
2 61562  88.9718  72.7763 0010327 160.9071 199.2470 13.51043387 78925
QIANFAN-30              
1 61563U 24185M   26064.13297721  .00000200  00000+0  29480-3 0  9998
2 61563  88.9738  72.3371 0008636 145.1621 215.0096 13.50018461 79189
QIANFAN-31              
1 61564U 24185N   26064.13331584  .00000217  00000+0  28345-3 0  9992
2 61564  88.9722  72.0078 0008305 136.7361 223.4448 13.58002808 79342
QIANFAN-32              
1 61565U 24185P   26064.12995975  .00000172  00000+0  24861-3 0  9991
2 61565  88.9782  72.4969 0009674 174.0411 186.0857 13.50763805 79164
QIANFAN-33              
1 61566U 24185Q   26064.15585126  .00000503  00000+0  35381-3 0  9995
2 61566  88.9736  69.6015 0009302  74.6978 285.5226 13.96622420 80664
QIANFAN-34              
1 61567U 24185R   26064.13990706  .00000540  00000+0  34262-3 0  9996
2 61567  88.9713  69.0574 0008298  78.3971 281.8141 14.02382464 80902
