[{"OBJECT_NAME":"QIANFAN-18","OBJECT_ID":"2024-140T","EPOCH":"2026-03-05T03:30:42.428160","MEAN_MOTION":13.51003523,"ECCENTRICITY":0.0013166,"INCLINATION":88.9722,"RA_OF_ASC_NODE":290.4492,"ARG_OF_PERICENTER":316.5248,"MEAN_ANOMALY":43.4864,"EPHEMERIS_TYPE":0,"CLASSIFICATION_TYPE":"U","NORAD_CAT_ID":60396,"ELEMENT_SET_NO":999,"REV_AT_EPOCH":7865,"BSTAR":0.00012674,"MEAN_MOTION_DOT":9.4e-7,"MEAN_MOTION_DDOT":0},{"OBJECT_NAME":"QIANFAN-19","OBJECT_ID":"2024-185A","EPOCH":"2026-03-05T03:34:19.095168","MEAN_MOTION":14.14386415,"ECCENTRICITY":0.0008667,"INCLINATION":88.9758,"RA_OF_ASC_NODE":68.4789,"ARG_OF_PERICENTER":52.1363,"MEAN_ANOMALY":308.0607,"EPHEMERIS_TYPE":0,"CLASSIFICATION_TYPE":"U","NORAD_CAT_ID":61552,"ELEMENT_SET_NO":999,"REV_AT_EPOCH":8131,"BSTAR":0.00032513,"MEAN_MOTION_DOT":6.36e-6,"MEAN_MOTION_DDOT":0},{"OBJECT_NAME":"QIANFAN-20","OBJECT_ID":"2024-185B","EPOCH":"2026-03-05T03:28:43.724064","MEAN_MOTION":14.08932813,"ECCENTRICITY":0.0007902,"INCLINATION":88.9756,"RA_OF_ASC_NODE":68.8864,"ARG_OF_PERICENTER":83.7645,"MEAN_ANOMALY":276.4439,"EPHEMERIS_TYPE":0,"CLASSIFICATION_TYPE":"U","NORAD_CAT_ID":61553,"ELEMENT_SET_NO":999,"REV_AT_EPOCH":8109,"BSTAR":0.00035118,"MEAN_MOTION_DOT":6.21e-6,"MEAN_MOTION_DDOT":0},{"OBJECT_NAME":"QIANFAN-21","OBJECT_ID":"2024-185C","EPOCH":"2026-03-05T04:24:08.569728","MEAN_MOTION":14.22727218,"ECCENTRICITY":0.0013013,"INCLINATION":88.9677,"RA_OF_ASC_NODE":67.3033,"ARG_OF_PERICENTER":94.03,"MEAN_ANOMALY":266.2379,"EPHEMERIS_TYPE":0,"CLASSIFICATION_TYPE":"U","NORAD_CAT_ID":61554,"ELEMENT_SET_NO":999,"REV_AT_EPOCH":8169,"BSTAR":0.00034632,"MEAN_MOTION_DOT":7.91e-6,"MEAN_MOTION_DDOT":0},{"OBJECT_NAME":"QIANFAN-22","OBJECT_ID":"2024-185D","EPOCH":"2026-03-05T03:28:18.045120","MEAN_MOTION":13.86338451,"ECCENTRICITY":0.0008586,"INCLINATION":88.974,"RA_OF_ASC_NODE":70.2007,"ARG_OF_PERICENTER":101.1318,"MEAN_ANOMALY":259.0819,"EPHEMERIS_TYPE":0,"CLASSIFICATION_TYPE":"U","NORAD_CAT_ID":61555,"ELEMENT_SET_NO":999,"REV_AT_EPOCH":8035,"BSTAR":0.00024922,"MEAN_MOTION_DOT":3.02e-6,"MEAN_MOTION_DDOT":0},{"OBJECT_NAME":"QIANFAN-23","OBJECT_ID":"2024-185E","EPOCH":"2026-03-05T03:35:02.848992","MEAN_MOTION":14.16391479,"ECCENTRICITY":0.0009596,"INCLINATION":88.9751,"RA_OF_ASC_NODE":68.2497,"ARG_OF_PERICENTER":60.0562,"MEAN_ANOMALY":300.1578,"EPHEMERIS_TYPE":0,"CLASSIFICATION_TYPE":"U","NORAD_CAT_ID":61556,"ELEMENT_SET_NO":999,"REV_AT_EPOCH":8141,"BSTAR":0.00034257,"MEAN_MOTION_DOT":6.95e-6,"MEAN_MOTION_DDOT":0},{"OBJECT_NAME":"QIANFAN-24","OBJECT_ID":"2024-185F","EPOCH":"2026-03-05T02:47:56.276448","MEAN_MOTION":14.23930997,"ECCENTRICITY":0.001065,"INCLINATION":88.9734,"RA_OF_ASC_NODE":67.5238,"ARG_OF_PERICENTER":40.3729,"MEAN_ANOMALY":319.8252,"EPHEMERIS_TYPE":0,"CLASSIFICATION_TYPE":"U","NORAD_CAT_ID":61557,"ELEMENT_SET_NO":999,"REV_AT_EPOCH":8174,"BSTAR":0.00041038,"MEAN_MOTION_DOT":9.55e-6,"MEAN_MOTION_DDOT":0},{"OBJECT_NAME":"QIANFAN-25","OBJECT_ID":"2024-185G","EPOCH":"2026-03-05T03:19:38.833824","MEAN_MOTION":14.05994488,"ECCENTRICITY":0.0011918,"INCLINATION":88.9748,"RA_OF_ASC_NODE":68.8451,"ARG_OF_PERICENTER":66.7403,"MEAN_ANOMALY":293.5033,"EPHEMERIS_TYPE":0,"CLASSIFICATION_TYPE":"U","NORAD_CAT_ID":61558,"ELEMENT_SET_NO":999,"REV_AT_EPOCH":8108,"BSTAR":0.00032547,"MEAN_MOTION_DOT":5.47e-6,"MEAN_MOTION_DDOT":0},{"OBJECT_NAME":"QIANFAN-26","OBJECT_ID":"2024-185H","EPOCH":"2026-03-05T02:26:25.930464","MEAN_MOTION":13.77861118,"ECCENTRICITY":0.0007668,"INCLINATION":88.9745,"RA_OF_ASC_NODE":70.8447,"ARG_OF_PERICENTER":113.9011,"MEAN_ANOMALY":246.2959,"EPHEMERIS_TYPE":0,"CLASSIFICATION_TYPE":"U","NORAD_CAT_ID":61559,"ELEMENT_SET_NO":999,"REV_AT_EPOCH":8001,"BSTAR":0.00028314,"MEAN_MOTION_DOT":2.96e-6,"MEAN_MOTION_DDOT":0},{"OBJECT_NAME":"QIANFAN-27","OBJECT_ID":"2024-185J","EPOCH":"2026-03-05T02:51:47.341152","MEAN_MOTION":14.27442525,"ECCENTRICITY":0.0008709,"INCLINATION":88.9748,"RA_OF_ASC_NODE":67.2668,"ARG_OF_PERICENTER":33.8211,"MEAN_ANOMALY":326.3537,"EPHEMERIS_TYPE":0,"CLASSIFICATION_TYPE":"U","NORAD_CAT_ID":61560,"ELEMENT_SET_NO":999,"REV_AT_EPOCH":8191,"BSTAR":0.00026528,"MEAN_MOTION_DOT":6.65e-6,"MEAN_MOTION_DDOT":0},{"OBJECT_NAME":"QIANFAN-28","OBJECT_ID":"2024-185K","EPOCH":"2026-03-05T04:46:46.890912","MEAN_MOTION":14.28211327,"ECCENTRICITY":0.0008309,"INCLINATION":88.9763,"RA_OF_ASC_NODE":67.2645,"ARG_OF_PERICENTER":34.5811,"MEAN_ANOMALY":325.5922,"EPHEMERIS_TYPE":0,"CLASSIFICATION_TYPE":"U","NORAD_CAT_ID":61561,"ELEMENT_SET_NO":999,"REV_AT_EPOCH":8194,"BSTAR":0.00043728,"MEAN_MOTION_DOT":1.103e-5,"MEAN_MOTION_DDOT":0},{"OBJECT_NAME":"QIANFAN-29","OBJECT_ID":"2024-185L","EPOCH":"2026-03-05T04:04:28.900416","MEAN_MOTION":13.51043387,"ECCENTRICITY":0.0010327,"INCLINATION":88.9718,"RA_OF_ASC_NODE":72.7763,"ARG_OF_PERICENTER":160.9071,"MEAN_ANOMALY":199.247,"EPHEMERIS_TYPE":0,"CLASSIFICATION_TYPE":"U","NORAD_CAT_ID":61562,"ELEMENT_SET_NO":999,"REV_AT_EPOCH":7892,"BSTAR":0.00028966,"MEAN_MOTION_DOT":1.99e-6,"MEAN_MOTION_DDOT":0},{"OBJECT_NAME":"QIANFAN-30","OBJECT_ID":"2024-185M","EPOCH":"2026-03-05T03:11:29.230944","MEAN_MOTION":13.50018461,"ECCENTRICITY":0.0008636,"INCLINATION":88.9738,"RA_OF_ASC_NODE":72.3371,"ARG_OF_PERICENTER":145.1621,"MEAN_ANOMALY":215.0096,"EPHEMERIS_TYPE":0,"CLASSIFICATION_TYPE":"U","NORAD_CAT_ID":61563,"ELEMENT_SET_NO":999,"REV_AT_EPOCH":7918,"BSTAR":0.0002948,"MEAN_MOTION_DOT":2.0e-6,"MEAN_MOTION_DDOT":0},{"OBJECT_NAME":"QIANFAN-31","OBJECT_ID":"2024-185N","EPOCH":"2026-03-05T03:11:58.488576","MEAN_MOTION":13.58002808,"ECCENTRICITY":0.0008305,"INCLINATION":88.9722,"RA_OF_ASC_NODE":72.0078,"ARG_OF_PERICENTER":136.7361,"MEAN_ANOMALY":223.4448,"EPHEMERIS_TYPE":0,"CLASSIFICATION_TYPE":"U","NORAD_CAT_ID":61564,"ELEMENT_SET_NO":999,"REV_AT_EPOCH":7934,"BSTAR":0.00028345,"MEAN_MOTION_DOT":2.17e-6,"MEAN_MOTION_DDOT":0},{"OBJECT_NAME":"QIANFAN-32","OBJECT_ID":"2024-185P","EPOCH":"2026-03-05T03:07:08.522400","MEAN_MOTION":13.50763805,"ECCENTRICITY":0.0009674,"INCLINATION":88.9782,"RA_OF_ASC_NODE":72.4969,"ARG_OF_PERICENTER":174.0411,"MEAN_ANOMALY":186.0857,"EPHEMERIS_TYPE":0,"CLASSIFICATION_TYPE":"U","NORAD_CAT_ID":61565,"ELEMENT_SET_NO":999,"REV_AT_EPOCH":7916,"BSTAR":0.00024861,"MEAN_MOTION_DOT":1.72e-6,"MEAN_MOTION_DDOT":0},{"OBJECT_NAME":"QIANFAN-33","OBJECT_ID":"2024-185Q","EPOCH":"2026-03-05T03:44:25.548864","MEAN_MOTION":13.9662242,"ECCENTRICITY":0.0009302,"INCLINATION":88.9736,"RA_OF_ASC_NODE":69.6015,"ARG_OF_PERICENTER":74.6978,"MEAN_ANOMALY":285.5226,"EPHEMERIS_TYPE":0,"CLASSIFICATION_TYPE":"U","NORAD_CAT_ID":61566,"ELEMENT_SET_NO":999,"REV_AT_EPOCH":8066,"BSTAR":0.00035381,"MEAN_MOTION_DOT":5.03e-6,"MEAN_MOTION_DDOT":0},{"OBJECT_NAME":"QIANFAN-34","OBJECT_ID":"2024-185R","EPOCH":"2026-03-05T03:21:27.969984","MEAN_MOTION":14.02382464,"ECCENTRICITY":0.0008298,"INCLINATION":88.9713,"RA_OF_ASC_NODE":69.0574,"ARG_OF_PERICENTER":78.3971,"MEAN_ANOMALY":281.8141,"EPHEMERIS_TYPE":0,"CLASSIFICATION_TYPE":"U","NORAD_CAT_ID":61567,"ELEMENT_SET_NO":999,"REV_AT_EPOCH":8090,"BSTAR":0.00034262,"MEAN_MOTION_DOT":5.4e-6,"MEAN_MOTION_DDOT":0}]
